[
    {
        "CCSDS_OMM_VERS": "3.0",
        "COMMENT": "GENERATED VIA SPACE-TRACK.ORG API",
        "CREATION_DATE": "2025-04-14T03:05:54",
        "ORIGINATOR": "18 SPCS",
        "OBJECT_NAME": "COSMOS 2492 (GLONASS)",
        "OBJECT_ID": "2014-012A",
        "CENTER_NAME": "EARTH",
        "REF_FRAME": "TEME",
        "TIME_SYSTEM": "UTC",
        "MEAN_ELEMENT_THEORY": "SGP4",
        "EPOCH": "2025-04-13T00:39:10.552608",
        "MEAN_MOTION": "2.13103338",
        "ECCENTRICITY": "0.00126510",
        "INCLINATION": "65.5367",
        "RA_OF_ASC_NODE": "328.5201",
        "ARG_OF_PERICENTER": "330.1139",
        "MEAN_ANOMALY": "29.8711",
        "EPHEMERIS_TYPE": "0",
        "CLASSIFICATION_TYPE": "U",
        "NORAD_CAT_ID": "39620",
        "ELEMENT_SET_NO": "999",
        "REV_AT_EPOCH": "8607",
        "BSTAR": "0.00000000000000",
        "MEAN_MOTION_DOT": "-0.00000047",
        "MEAN_MOTION_DDOT": "0.0000000000000",
        "SEMIMAJOR_AXIS": "25507.918",
        "PERIOD": "675.729",
        "APOAPSIS": "19162.053",
        "PERIAPSIS": "19097.513",
        "OBJECT_TYPE": "PAYLOAD",
        "RCS_SIZE": "LARGE",
        "COUNTRY_CODE": "CIS",
        "LAUNCH_DATE": "2014-03-23",
        "SITE": "PKMTR",
        "DECAY_DATE": null,
        "FILE": "4701263",
        "GP_ID": "285536232",
        "TLE_LINE0": "0 COSMOS 2492 (GLONASS)",
        "TLE_LINE1": "1 39620U 14012A   25103.02720547 -.00000047  00000-0  00000-0 0  9998",
        "TLE_LINE2": "2 39620  65.5367 328.5201 0012651 330.1139  29.8711  2.13103338 86073"
    }
]